UOSAT 2 (UO-11)         
1 14781U 84021B   21053.77964449  .00000176  00000-0  27549-4 0  9992
2 14781  97.5916  59.2781 0009978  97.4959 262.7389 14.83249693968939
NOAA 9                  
1 15427U 84123A   21053.85168122  .00000032  00000-0  39145-4 0  9992
2 15427  98.9787  15.5817 0015878  86.0903 303.4873 14.16122872868735
LUSAT (LO-19)           
1 20442U 90005G   21054.11499584  .00000021  00000-0  24239-4 0  9996
2 20442  98.7268   8.6326 0012516 133.5710 226.6515 14.32976984624512
ITAMSAT (IO-26)         
1 22826U 93061D   21053.91460769  .00000014  00000-0  23420-4 0  9992
2 22826  98.9185  68.5974 0008925   2.8253 357.2977 14.30444525430105
RADIO ROSTO (RS-15)     
1 23439U 94085A   21053.93801460 -.00000037  00000-0  15882-3 0  9997
2 23439  64.8126 201.1617 0157377 355.8695   4.0921 11.27570640 77428
JAS-2 (FO-29)           
1 24278U 96046B   21053.68993550 -.00000035  00000-0 -24253-5 0  9995
2 24278  98.5792 136.8194 0351288  86.9574 277.1697 13.53102299210729
NOAA 15                 
1 25338U 98030A   21054.55914246  .00000032  00000-0  32077-4 0  9997
2 25338  98.6954  84.0303 0009427 249.9251 110.0914 14.26014148185018
TECHSAT 1B (GO-32)      
1 25397U 98043D   21053.85129691 -.00000006  00000-0  16720-4 0  9999
2 25397  98.7586 359.7969 0002287  70.0652 290.0772 14.23701740175401
ISS (ZARYA)             
1 25544U 98067A   21054.70238426  .00002178  00000-0  47677-4 0  9997
2 25544  51.6441 184.0312 0002939  44.4470 167.2102 15.48998344271002
ORSTED                  
1 25635U 99008B   21053.88852949  .00000090  00000-0  29510-4 0  9991
2 25635  96.4605  25.2252 0136910 271.3661  87.1857 14.48266060160861
PHASE 3D (AO-40)        
1 26609U 00072B   21052.69830674 -.00000103  00000-0  00000-0 0  9990
2 26609   9.1890 341.1818 7939907 228.0184  30.7899  1.25586146 93137
PCSAT (NO-44)           
1 26931U 01043C   21054.15318448 -.00000003  00000-0  30597-4 0  9997
2 26931  67.0499 215.4192 0007361 268.7495  91.2763 14.30607163 13003
SAUDISAT 1C (SO-50)     
1 27607U 02058C   21054.18206264  .00000061  00000-0  29166-4 0  9993
2 27607  64.5570 327.7669 0030326  69.2512 291.1836 14.75714319977858
CUTE-1 (CO-55)          
1 27844U 03031E   21053.94929365  .00000082  00000-0  56336-4 0  9997
2 27844  98.6827  63.8862 0010737  54.5054 305.7124 14.22289736915743
CUBESAT XI-IV (CO-57)   
1 27848U 03031J   21053.69740999  .00000060  00000-0  47154-4 0  9991
2 27848  98.6886  64.2061 0010754  67.1093 293.1219 14.21869182915507
MOZHAYETS 4 (RS-22)     
1 27939U 03042A   21054.40548776  .00000177  00000-0  40257-4 0  9999
2 27939  98.1195 192.4260 0011496 280.8595  79.1321 14.66946556930802
INMARSAT 4-F1           
1 28628U 05009A   21053.52744580 -.00000258  00000-0  00000-0 0  9992
2 28628   3.3021  29.7842 0003022 307.5905 148.6447  1.00271480 58218
NOAA 18                 
1 28654U 05018A   21054.55013005  .00000080  00000-0  67608-4 0  9999
2 28654  99.0094 118.8914 0013512 241.0320 118.9497 14.12583619812453
CUBESAT XI-V            
1 28895U 05043F   21053.80002083  .00000188  00000-0  44930-4 0  9997
2 28895  98.0391 189.6721 0016281 207.5471 152.4870 14.63867884817235
METOP-A                 
1 29499U 06044A   21054.60076986  .00000013  00000-0  25188-4 0  9993
2 29499  98.4892  98.3245 0000648 110.1982  46.8346 14.21498996744566
CARTOSAT-2 (IRS-P7)     
1 29710U 07001B   21053.67203916  .00002776  00000-0  90784-4 0  9996
2 29710  97.8841 130.8024 0169956 284.5973  73.6468 15.19930857763200
FALCONSAT-3             
1 30776U 07006E   21053.50599227  .00005873  00000-0  14635-3 0  9991
2 30776  35.4342 118.3714 0003202 281.5403  78.4965 15.39623384775373
CAPE-1                  
1 31130U 07012P   21054.09507125  .00000231  00000-0  59597-4 0  9994
2 31130  98.2240 354.6435 0095544 339.6033  20.1359 14.56636830735297
CARTOSAT-2A             
1 32783U 08021A   21054.45525364 -.00000016  00000-0  47881-5 0  9991
2 32783  97.8890 116.0494 0011103 275.8657  84.1298 14.78686191692232
CUTE-1.7+APD II (CO-65) 
1 32785U 08021C   21053.86538318  .00000399  00000-0  48431-4 0  9994
2 32785  97.5996  37.2381 0013722  29.2031 330.9951 14.88637662695199
COMPASS-1               
1 32787U 08021E   21054.20495174  .00000997  00000-0  98651-4 0  9990
2 32787  97.5230  49.8837 0011200 317.9613  42.0747 14.93967497696529
AAUSAT-II               
1 32788U 08021F   21054.47665180  .00001326  00000-0  12494-3 0  9993
2 32788  97.5008  53.9544 0010144 296.4965  63.5216 14.95403773696928
DELFI-C3 (DO-64)        
1 32789U 08021G   21054.07754718  .00001896  00000-0  12523-3 0  9991
2 32789  97.3907  93.7997 0012349 168.3351 191.8166 15.08518999699681
SEEDS II (CO-66)        
1 32791U 08021J   21053.76430537  .00000626  00000-0  68212-4 0  9996
2 32791  97.5619  43.1549 0013062 355.5380   4.5720 14.91284391695682
YUBILEINY (RS-30)       
1 32953U 08025A   21054.50506822  .00000028  00000-0  12906-3 0  9998
2 32953  82.5052 121.8098 0018948 222.3469 137.6150 12.43100117578826
FENGYUN 3A              
1 32958U 08026A   21053.73476737  .00000019  00000-0  28824-4 0  9996
2 32958  98.4368  32.8671 0008300 339.0298  21.0537 14.18648075660205
PRISM (HITOMI)          
1 33493U 09002B   21053.80596989  .00001118  00000-0  10153-3 0  9992
2 33493  98.1740  10.9386 0014046 309.0439  50.9531 14.97441966657162
STARS (KUKAI)           
1 33498U 09002G   21053.61377915  .00000285  00000-0  45791-4 0  9993
2 33498  98.2312 291.1011 0010968   2.4310 357.6951 14.79282607650488
KKS-1 (KISEKI)          
1 33499U 09002H   21054.41893371  .00000145  00000-0  29163-4 0  9992
2 33499  98.2861 281.7329 0010080  50.1974 310.0120 14.75620173650027
NOAA 19                 
1 33591U 09005A   21054.50272903  .00000005  00000-0  27907-4 0  9999
2 33591  99.1922  72.3354 0014908  92.3007 267.9870 14.12453060620836
SWISSCUBE               
1 35932U 09051B   21054.52400806  .00000183  00000-0  52170-4 0  9995
2 35932  98.6077 250.9115 0008659  79.2585 280.9587 14.56491284606418
BEESAT-1                
1 35933U 09051C   21054.49433401  .00000153  00000-0  45484-4 0  9996
2 35933  98.6051 252.7307 0006894  90.7386 269.4601 14.56554705606529
ITUPSAT1                
1 35935U 09051E   21053.81218050  .00000122  00000-0  39171-4 0  9996
2 35935  98.6157 252.1867 0009210  92.9670 267.2580 14.55691142606098
XIWANG-1 (HOPE-1)       
1 36122U 09072B   21053.76336964 -.00000056  00000-0 -35044-4 0  9990
2 36122 100.1185  39.2388 0007596  11.6692 348.4596 13.16358810537805
CARTOSAT-2B             
1 36795U 10035A   21054.42390450  .00000075  00000-0  17261-4 0  9991
2 36795  97.8862 115.4532 0013860 358.3669   1.7504 14.78704765573271
TISAT 1                 
1 36799U 10035E   21054.48342968  .00000510  00000-0  56950-4 0  9994
2 36799  98.2045 240.6816 0011307 222.9214 137.1122 14.91610570576543
FENGYUN 3B              
1 37214U 10059A   21054.51253316  .00000010  00000-0  28654-4 0  9990
2 37214  99.0736  46.4525 0016017 276.9408 233.3014 14.15976725533206
JUGNU                   
1 37839U 11058B   21054.52662663  .00000320  00000-0  28552-4 0  9994
2 37839  19.9601 200.1295 0018875 276.6249 144.3913 14.12704394484446
SRMSAT                  
1 37841U 11058D   21053.76238334  .00000325  00000-0  33273-4 0  9997
2 37841  19.9715 274.2750 0011905 113.9617 306.2087 14.10685698483502
M-CUBED & EXP-1 PRIME   
1 37855U 11061F   21054.06249758  .00001925  00000-0  10013-3 0  9995
2 37855 101.7247 278.1500 0168283  50.8241 310.7784 15.07220973509418
HORYU-2                 
1 38340U 12025D   21053.71440940  .00000251  00000-0  44278-4 0  9995
2 38340  98.2475 118.8624 0010571 327.3075  32.7478 14.75979083461461
METOP-B                 
1 38771U 12049A   21054.42530361  .00000001  00000-0  20295-4 0  9991
2 38771  98.6953 116.1044 0001563  36.8134  36.8103 14.21498237437674
SARAL                   
1 39086U 13009A   21053.80339121  .00000008  00000-0  19090-4 0  9998
2 39086  98.5435 241.5669 0000635 146.6096 213.5128 14.32044757417833
AAUSAT 3                
1 39087U 13009B   21054.51772190  .00000138  00000-0  62575-4 0  9995
2 39087  98.4330 260.3227 0011626 254.0611 105.9286 14.35899793418847
STRAND-1                
1 39090U 13009E   21053.78987143  .00000050  00000-0  32696-4 0  9997
2 39090  98.4362 258.6296 0008019 258.8489 101.1795 14.35169450418594
BRITE-AUSTRIA           
1 39091U 13009F   21053.84505218  .00000020  00000-0  21907-4 0  9994
2 39091  98.4359 257.8129 0009348 266.2569  93.7548 14.35175428418634
UNIBRITE                
1 39092U 13009G   21053.82367925  .00000025  00000-0  23697-4 0  9997
2 39092  98.4387 257.4849 0008257 260.2473  99.7780 14.35046985418591
SOMP                    
1 39134U 13015E   21053.67911796  .00003438  00000-0  15842-3 0  9998
2 39134  64.8635 185.5630 0008735 223.4634 136.5807 15.22031878433747
BEESAT-3                
1 39135U 13015F   21054.42794612  .00002606  00000-0  13342-3 0  9998
2 39135  64.8666 210.4738 0011656 198.7647 161.3052 15.18948741433719
BEESAT-2                
1 39136U 13015G   21053.85162864  .00002444  00000-0  12710-3 0  9991
2 39136  64.8749 218.2621 0027874 258.4403 101.3594 15.18329064433101
NEE-01 PEGASO           
1 39151U 13018B   21054.52953644  .00000240  00000-0  38417-4 0  9995
2 39151  97.9740 157.7065 0017084  12.0199 348.1417 14.80289622422828
CUBEBUG-1 (CAPITAN BETO)
1 39153U 13018D   21054.25359115  .00000299  00000-0  45634-4 0  9993
2 39153  97.9871 160.3805 0016881   8.4566 351.6928 14.80859831422908
ESTCUBE 1               
1 39161U 13021C   21054.45611118  .00000162  00000-0  33357-4 0  9990
2 39161  97.9459 138.2424 0010265 150.7898 209.3888 14.72427075418977
FENGYUN 3C              
1 39260U 13052A   21054.43017882  .00000002  00000-0  21941-4 0  9999
2 39260  98.5161 100.2752 0010502 208.3865 151.6748 14.15859844384139
